SPAWAR-CAL-OR           
1 43778U 18099W   26068.67659123  .00011389  00000+0  50868-3 0  9998
2 43778  97.3939 118.6375 0010419 310.1337  49.8986 15.21464282397519
2024-174A               
1 61238U 24174A   26068.73892799  .00005060  00000+0  24396-3 0  9991
2 61238  97.4523  77.8721 0001402  95.7936 264.3459 15.19157836 80580
