[{"OBJECT_NAME":"SPAWAR-CAL-OR","OBJECT_ID":"2018-099W","EPOCH":"2026-03-09T16:14:17.483136","MEAN_MOTION":15.21464282,"ECCENTRICITY":0.00104186,"INCLINATION":97.3939,"RA_OF_ASC_NODE":118.6375,"ARG_OF_PERICENTER":310.1337,"MEAN_ANOMALY":49.8986,"EPHEMERIS_TYPE":0,"CLASSIFICATION_TYPE":"U","NORAD_CAT_ID":43778,"ELEMENT_SET_NO":999,"REV_AT_EPOCH":39751,"BSTAR":0.00050868189,"MEAN_MOTION_DOT":0.00011389,"MEAN_MOTION_DDOT":0},{"OBJECT_NAME":"OBJECT A","OBJECT_ID":"2024-174A","EPOCH":"2026-03-09T17:44:03.378336","MEAN_MOTION":15.19157836,"ECCENTRICITY":0.00014022,"INCLINATION":97.4523,"RA_OF_ASC_NODE":77.8721,"ARG_OF_PERICENTER":95.7936,"MEAN_ANOMALY":264.3459,"EPHEMERIS_TYPE":0,"CLASSIFICATION_TYPE":"U","NORAD_CAT_ID":61238,"ELEMENT_SET_NO":999,"REV_AT_EPOCH":8058,"BSTAR":0.00024396244,"MEAN_MOTION_DOT":5.06e-5,"MEAN_MOTION_DDOT":0}]
